[{"OBJECT_NAME":"DELTA 4H R/B","OBJECT_ID":"2009-001B","EPOCH":"2026-04-26T23:33:18.829152","MEAN_MOTION":0.96059696,"ECCENTRICITY":0.0263633,"INCLINATION":9.5839,"RA_OF_ASC_NODE":35.4939,"ARG_OF_PERICENTER":63.9214,"MEAN_ANOMALY":298.6771,"EPHEMERIS_TYPE":0,"CLASSIFICATION_TYPE":"U","NORAD_CAT_ID":33491,"ELEMENT_SET_NO":999,"REV_AT_EPOCH":2366,"BSTAR":0,"MEAN_MOTION_DOT":-2.17e-6,"MEAN_MOTION_DDOT":0},{"OBJECT_NAME":"TITAN 3C TRANSTAGE DEB","OBJECT_ID":"1968-081L","EPOCH":"2026-04-26T15:27:29.642976","MEAN_MOTION":1.01833928,"ECCENTRICITY":0.0078894,"INCLINATION":1.9297,"RA_OF_ASC_NODE":53.0456,"ARG_OF_PERICENTER":313.9054,"MEAN_ANOMALY":116.2943,"EPHEMERIS_TYPE":0,"CLASSIFICATION_TYPE":"U","NORAD_CAT_ID":33510,"ELEMENT_SET_NO":999,"REV_AT_EPOCH":658,"BSTAR":0,"MEAN_MOTION_DOT":-7.2e-7,"MEAN_MOTION_DDOT":0},{"OBJECT_NAME":"TITAN 3C TRANSTAGE DEB","OBJECT_ID":"1968-081M","EPOCH":"2026-04-27T01:23:11.740128","MEAN_MOTION":1.00770005,"ECCENTRICITY":0.01356747,"INCLINATION":1.6369,"RA_OF_ASC_NODE":35.5504,"ARG_OF_PERICENTER":302.9466,"MEAN_ANOMALY":225.0702,"EPHEMERIS_TYPE":0,"CLASSIFICATION_TYPE":"U","NORAD_CAT_ID":33511,"ELEMENT_SET_NO":999,"REV_AT_EPOCH":6690,"BSTAR":0,"MEAN_MOTION_DOT":-2.57e-6,"MEAN_MOTION_DDOT":0},{"OBJECT_NAME":"TITAN 3C TRANSTAGE DEB","OBJECT_ID":"1968-081N","EPOCH":"2026-04-26T20:09:26.087328","MEAN_MOTION":1.00910674,"ECCENTRICITY":0.024318,"INCLINATION":1.933,"RA_OF_ASC_NODE":43.0327,"ARG_OF_PERICENTER":314.6437,"MEAN_ANOMALY":43.2264,"EPHEMERIS_TYPE":0,"CLASSIFICATION_TYPE":"U","NORAD_CAT_ID":33512,"ELEMENT_SET_NO":999,"REV_AT_EPOCH":7311,"BSTAR":0,"MEAN_MOTION_DOT":-1.52e-6,"MEAN_MOTION_DDOT":0},{"OBJECT_NAME":"TITAN 3C TRANSTAGE DEB","OBJECT_ID":"1968-081P","EPOCH":"2026-04-27T08:05:30.120288","MEAN_MOTION":1.01396742,"ECCENTRICITY":0.0086145,"INCLINATION":1.9401,"RA_OF_ASC_NODE":49.0099,"ARG_OF_PERICENTER":287.9661,"MEAN_ANOMALY":278.4032,"EPHEMERIS_TYPE":0,"CLASSIFICATION_TYPE":"U","NORAD_CAT_ID":33513,"ELEMENT_SET_NO":999,"REV_AT_EPOCH":4735,"BSTAR":0,"MEAN_MOTION_DOT":-2.65e-6,"MEAN_MOTION_DDOT":0},{"OBJECT_NAME":"GOES 5 AKM","OBJECT_ID":"1981-049D","EPOCH":"2026-04-27T10:46:56.889984","MEAN_MOTION":0.82272737,"ECCENTRICITY":0.1706153,"INCLINATION":16.4291,"RA_OF_ASC_NODE":317.912,"ARG_OF_PERICENTER":143.0658,"MEAN_ANOMALY":237.9387,"EPHEMERIS_TYPE":0,"CLASSIFICATION_TYPE":"U","NORAD_CAT_ID":33521,"ELEMENT_SET_NO":999,"REV_AT_EPOCH":5818,"BSTAR":0,"MEAN_MOTION_DOT":-2.46e-6,"MEAN_MOTION_DDOT":0},{"OBJECT_NAME":"ARIANE 3 DEB","OBJECT_ID":"1988-081L","EPOCH":"2026-04-27T12:11:25.685088","MEAN_MOTION":2.1574958,"ECCENTRICITY":0.6973647,"INCLINATION":6.7498,"RA_OF_ASC_NODE":296.5759,"ARG_OF_PERICENTER":114.0855,"MEAN_ANOMALY":215.2654,"EPHEMERIS_TYPE":0,"CLASSIFICATION_TYPE":"U","NORAD_CAT_ID":33536,"ELEMENT_SET_NO":999,"REV_AT_EPOCH":17245,"BSTAR":0,"MEAN_MOTION_DOT":-2.7e-6,"MEAN_MOTION_DDOT":0},{"OBJECT_NAME":"ARIANE 3 DEB","OBJECT_ID":"1988-081M","EPOCH":"2026-04-25T23:21:45.195264","MEAN_MOTION":2.16841005,"ECCENTRICITY":0.69952619,"INCLINATION":6.2978,"RA_OF_ASC_NODE":116.123,"ARG_OF_PERICENTER":94.6096,"MEAN_ANOMALY":322.4153,"EPHEMERIS_TYPE":0,"CLASSIFICATION_TYPE":"U","NORAD_CAT_ID":33537,"ELEMENT_SET_NO":999,"REV_AT_EPOCH":10347,"BSTAR":0,"MEAN_MOTION_DOT":-2.41e-6,"MEAN_MOTION_DDOT":0},{"OBJECT_NAME":"ARIANE 3 DEB","OBJECT_ID":"1988-081N","EPOCH":"2026-04-24T19:29:24.227808","MEAN_MOTION":2.24395077,"ECCENTRICITY":0.71934895,"INCLINATION":7.7298,"RA_OF_ASC_NODE":13.7531,"ARG_OF_PERICENTER":269.4878,"MEAN_ANOMALY":15.4665,"EPHEMERIS_TYPE":0,"CLASSIFICATION_TYPE":"U","NORAD_CAT_ID":33538,"ELEMENT_SET_NO":999,"REV_AT_EPOCH":16928,"BSTAR":0.00081819379,"MEAN_MOTION_DOT":8.1e-7,"MEAN_MOTION_DDOT":0},{"OBJECT_NAME":"ARIANE 44LP DEB","OBJECT_ID":"1988-109Q","EPOCH":"2026-04-26T05:44:20.431104","MEAN_MOTION":2.23924013,"ECCENTRICITY":0.71004718,"INCLINATION":7.233,"RA_OF_ASC_NODE":301.3707,"ARG_OF_PERICENTER":296.9972,"MEAN_ANOMALY":347.2521,"EPHEMERIS_TYPE":0,"CLASSIFICATION_TYPE":"U","NORAD_CAT_ID":33541,"ELEMENT_SET_NO":999,"REV_AT_EPOCH":19115,"BSTAR":0.0026979955,"MEAN_MOTION_DOT":-1.59e-6,"MEAN_MOTION_DDOT":0},{"OBJECT_NAME":"ARIANE 44LP DEB","OBJECT_ID":"1988-109R","EPOCH":"2026-04-26T12:53:23.997984","MEAN_MOTION":2.2436167,"ECCENTRICITY":0.71239524,"INCLINATION":6.586,"RA_OF_ASC_NODE":225.8651,"ARG_OF_PERICENTER":77.6816,"MEAN_ANOMALY":2.2511,"EPHEMERIS_TYPE":0,"CLASSIFICATION_TYPE":"U","NORAD_CAT_ID":33542,"ELEMENT_SET_NO":999,"REV_AT_EPOCH":17043,"BSTAR":-0.0030797589,"MEAN_MOTION_DOT":-8.6e-7,"MEAN_MOTION_DDOT":0},{"OBJECT_NAME":"ARIANE 44LP DEB","OBJECT_ID":"1988-109V","EPOCH":"2026-04-23T01:09:53.318592","MEAN_MOTION":2.2337063,"ECCENTRICITY":0.7130323,"INCLINATION":6.9633,"RA_OF_ASC_NODE":267.7836,"ARG_OF_PERICENTER":0.6196,"MEAN_ANOMALY":339.9145,"EPHEMERIS_TYPE":0,"CLASSIFICATION_TYPE":"U","NORAD_CAT_ID":33546,"ELEMENT_SET_NO":999,"REV_AT_EPOCH":2020,"BSTAR":0.0017441956,"MEAN_MOTION_DOT":1.8e-7,"MEAN_MOTION_DDOT":0},{"OBJECT_NAME":"ARIANE 2 DEB","OBJECT_ID":"1989-006AQ","EPOCH":"2026-03-31T22:58:55.278336","MEAN_MOTION":2.22279927,"ECCENTRICITY":0.69241998,"INCLINATION":10.1113,"RA_OF_ASC_NODE":13.8563,"ARG_OF_PERICENTER":197.3047,"MEAN_ANOMALY":115.4206,"EPHEMERIS_TYPE":0,"CLASSIFICATION_TYPE":"U","NORAD_CAT_ID":33548,"ELEMENT_SET_NO":999,"REV_AT_EPOCH":16627,"BSTAR":0,"MEAN_MOTION_DOT":-2.47e-6,"MEAN_MOTION_DDOT":0},{"OBJECT_NAME":"ARIANE 2 DEB","OBJECT_ID":"1989-006BA","EPOCH":"2026-04-07T09:11:39.648192","MEAN_MOTION":2.2180404,"ECCENTRICITY":0.69396358,"INCLINATION":10.5682,"RA_OF_ASC_NODE":358.6649,"ARG_OF_PERICENTER":218.8813,"MEAN_ANOMALY":61.199,"EPHEMERIS_TYPE":0,"CLASSIFICATION_TYPE":"U","NORAD_CAT_ID":33558,"ELEMENT_SET_NO":999,"REV_AT_EPOCH":1968,"BSTAR":0,"MEAN_MOTION_DOT":-1.59e-6,"MEAN_MOTION_DDOT":0},{"OBJECT_NAME":"ARIANE 2 DEB","OBJECT_ID":"1989-006BX","EPOCH":"2026-04-27T11:52:47.320032","MEAN_MOTION":2.24858514,"ECCENTRICITY":0.7090953,"INCLINATION":10.7774,"RA_OF_ASC_NODE":104.1681,"ARG_OF_PERICENTER":328.1544,"MEAN_ANOMALY":240.6097,"EPHEMERIS_TYPE":0,"CLASSIFICATION_TYPE":"U","NORAD_CAT_ID":33579,"ELEMENT_SET_NO":999,"REV_AT_EPOCH":19396,"BSTAR":0.0090303,"MEAN_MOTION_DOT":8.7e-7,"MEAN_MOTION_DDOT":0},{"OBJECT_NAME":"EXPRESS-AM44","OBJECT_ID":"2009-007A","EPOCH":"2026-04-27T01:29:41.118144","MEAN_MOTION":1.00271573,"ECCENTRICITY":0.0004145,"INCLINATION":3.3344,"RA_OF_ASC_NODE":78.9934,"ARG_OF_PERICENTER":314.7955,"MEAN_ANOMALY":192.695,"EPHEMERIS_TYPE":0,"CLASSIFICATION_TYPE":"U","NORAD_CAT_ID":33595,"ELEMENT_SET_NO":999,"REV_AT_EPOCH":5177,"BSTAR":0,"MEAN_MOTION_DOT":-9.7e-7,"MEAN_MOTION_DDOT":0},{"OBJECT_NAME":"BREEZE-M R/B","OBJECT_ID":"2009-007D","EPOCH":"2026-04-26T20:42:38.877408","MEAN_MOTION":0.97630468,"ECCENTRICITY":0.0202597,"INCLINATION":12.3461,"RA_OF_ASC_NODE":36.8663,"ARG_OF_PERICENTER":59.826,"MEAN_ANOMALY":130.3854,"EPHEMERIS_TYPE":0,"CLASSIFICATION_TYPE":"U","NORAD_CAT_ID":33598,"ELEMENT_SET_NO":999,"REV_AT_EPOCH":6177,"BSTAR":0,"MEAN_MOTION_DOT":-6.1e-7,"MEAN_MOTION_DDOT":0}]
