DELTA 4H R/B            
1 33491U 09001B   26116.98146793 -.00000217  00000+0  00000+0 0  9992
2 33491   9.5839  35.4939 0263633  63.9214 298.6771  0.96059696 23664
TITAN 3C TRANSTAGE DEB  
1 33510U 68081L   26116.64409309 -.00000072  00000+0  00000+0 0  9994
2 33510   1.9297  53.0456 0078894 313.9054 116.2943  1.01833928  6586
TITAN 3C TRANSTAGE DEB  
1 33511U 68081M   26117.05777477 -.00000257  00000+0  00000+0 0  9990
2 33511   1.6369  35.5504 0135674 302.9466 225.0702  1.00770005 66907
TITAN 3C TRANSTAGE DEB  
1 33512U 68081N   26116.83988527 -.00000152  00000+0  00000+0 0  9990
2 33512   1.9330  43.0327 0243180 314.6437  43.2264  1.00910674 73118
TITAN 3C TRANSTAGE DEB  
1 33513U 68081P   26117.33715417 -.00000265  00000+0  00000+0 0  9998
2 33513   1.9401  49.0099 0086145 287.9661 278.4032  1.01396742 47354
GOES 5 AKM              
1 33521U 81049D   26117.44926956 -.00000246  00000+0  00000+0 0  9999
2 33521  16.4291 317.9120 1706153 143.0658 237.9387  0.82272737 58181
ARIANE 3 DEB            
1 33536U 88081L   26117.50793617 -.00000270  00000+0  00000+0 0  9998
2 33536   6.7498 296.5759 6973647 114.0855 215.2654  2.15749580172450
ARIANE 3 DEB            
1 33537U 88081M   26115.97343976 -.00000241  00000+0  00000+0 0  9995
2 33537   6.2978 116.1230 6995261  94.6096 322.4153  2.16841005103473
ARIANE 3 DEB            
1 33538U 88081N   26114.81208597  .00000081  00000+0  81819-3 0  9999
2 33538   7.7298  13.7531 7193489 269.4878  15.4665  2.24395077169284
ARIANE 44LP DEB         
1 33541U 88109Q   26116.23912536 -.00000159  00000+0  26980-2 0  9991
2 33541   7.2330 301.3707 7100471 296.9972 347.2521  2.23924013191155
ARIANE 44LP DEB         
1 33542U 88109R   26116.53708331 -.00000086  00000+0 -30798-2 0  9993
2 33542   6.5860 225.8651 7123952  77.6816   2.2511  2.24361670170434
ARIANE 44LP DEB         
1 33546U 88109V   26113.04853378  .00000018  00000+0  17442-2 0  9996
2 33546   6.9633 267.7836 7130323   0.6196 339.9145  2.23370630 20204
ARIANE 2 DEB            
1 33548U 89006AQ  26090.95758424 -.00000247  00000+0  00000+0 0  9999
2 33548  10.1113  13.8563 6924199 197.3047 115.4206  2.22279927166272
ARIANE 2 DEB            
1 33558U 89006BA  26097.38309778 -.00000159  00000+0  00000+0 0  9990
2 33558  10.5682 358.6649 6939635 218.8813  61.1990  2.21804040 19682
ARIANE 2 DEB            
1 33579U 89006BX  26117.49499213  .00000087  00000+0  90303-2 0  9999
2 33579  10.7774 104.1681 7090953 328.1544 240.6097  2.24858514193961
EXPRESS-AM44            
1 33595U 09007A   26117.06228146 -.00000097  00000+0  00000+0 0  9992
2 33595   3.3344  78.9934 0004145 314.7955 192.6950  1.00271573 51770
BREEZE-M R/B            
1 33598U 09007D   26116.86294997 -.00000061  00000+0  00000+0 0  9990
2 33598  12.3461  36.8663 0202597  59.8260 130.3854  0.97630468 61772
